STARLINK-31528          
1 59010U 24036N   26068.46491283 -.00005874  00000+0 -18662-3 0  9990
2 59010  53.1616  79.5417 0001718  57.5039 302.6127 15.30151110115284
PHISAT 2                
1 60470U 24149C   26068.78834181  .00008925  00000+0  31421-3 0  9996
2 60470  97.3806 148.6498 0001175 168.6230 191.5037 15.29548631 86792
