[{"OBJECT_NAME":"STARLINK-31528","OBJECT_ID":"2024-036N","EPOCH":"2026-03-09T11:09:28.468512","MEAN_MOTION":15.3015111,"ECCENTRICITY":0.0001718,"INCLINATION":53.1616,"RA_OF_ASC_NODE":79.5417,"ARG_OF_PERICENTER":57.5039,"MEAN_ANOMALY":302.6127,"EPHEMERIS_TYPE":0,"CLASSIFICATION_TYPE":"U","NORAD_CAT_ID":59010,"ELEMENT_SET_NO":999,"REV_AT_EPOCH":11528,"BSTAR":-0.00018661961,"MEAN_MOTION_DOT":-5.874e-5,"MEAN_MOTION_DDOT":0},{"OBJECT_NAME":"PHISAT 2","OBJECT_ID":"2024-149C","EPOCH":"2026-03-09T18:55:12.732384","MEAN_MOTION":15.29548632,"ECCENTRICITY":0.00011753,"INCLINATION":97.3806,"RA_OF_ASC_NODE":148.6498,"ARG_OF_PERICENTER":168.623,"MEAN_ANOMALY":191.5037,"EPHEMERIS_TYPE":0,"CLASSIFICATION_TYPE":"U","NORAD_CAT_ID":60470,"ELEMENT_SET_NO":999,"REV_AT_EPOCH":8679,"BSTAR":0.00031420974,"MEAN_MOTION_DOT":8.925e-5,"MEAN_MOTION_DDOT":0}]
